[{"OBJECT_NAME":"STARLINK-5204","OBJECT_ID":"2022-136BC","EPOCH":"2026-03-09T23:47:56.423328","MEAN_MOTION":15.08829767,"ECCENTRICITY":0.00014474,"INCLINATION":53.2189,"RA_OF_ASC_NODE":317.5294,"ARG_OF_PERICENTER":91.0815,"MEAN_ANOMALY":269.0343,"EPHEMERIS_TYPE":0,"CLASSIFICATION_TYPE":"U","NORAD_CAT_ID":54101,"ELEMENT_SET_NO":999,"REV_AT_EPOCH":18724,"BSTAR":-0.00010614396,"MEAN_MOTION_DOT":-1.976e-5,"MEAN_MOTION_DDOT":0},{"OBJECT_NAME":"FENGYUN 1C DEB","OBJECT_ID":"1999-025CHJ","EPOCH":"2026-03-08T11:31:09.458976","MEAN_MOTION":14.95691878,"ECCENTRICITY":0.01420749,"INCLINATION":98.9647,"RA_OF_ASC_NODE":255.4325,"ARG_OF_PERICENTER":95.8243,"MEAN_ANOMALY":265.919,"EPHEMERIS_TYPE":0,"CLASSIFICATION_TYPE":"U","NORAD_CAT_ID":31820,"ELEMENT_SET_NO":999,"REV_AT_EPOCH":99536,"BSTAR":0.0019551569,"MEAN_MOTION_DOT":0.00026677,"MEAN_MOTION_DDOT":0}]
